{"type": "FeatureCollection", "features": [{"type": "Feature", "geometry": {"type": "MultiPolygon", "coordinates": [[[[-46.6907, -21.8376], [-46.6855, -21.8283], [-46.6708, -21.8165], [-46.6688, -21.809], [-46.6524, -21.7913], [-46.654, -21.7792], [-46.646, -21.7761], [-46.6394, -21.7685], [-46.6307, -21.7686], [-46.626, -21.7662], [-46.6274, -21.7479], [-46.6308, -21.7415], [-46.6256, -21.7341], [-46.6285, -21.7296], [-46.6232, -21.7195], [-46.623, -21.7129], [-46.6291, -21.7064], [-46.6287, -21.6948], [-46.6216, -21.6755], [-46.6145, -21.6765], [-46.6054, -21.6809], [-46.593, -21.6832], [-46.5727, -21.6817], [-46.5646, -21.6787], [-46.5667, -21.6592], [-46.5603, -21.653], [-46.5547, -21.6534], [-46.5482, -21.6482], [-46.553, -21.6381], [-46.5474, -21.6304], [-46.5349, -21.6287], [-46.5343, -21.6213], [-46.5182, -21.6128], [-46.516, -21.606], [-46.5244, -21.601], [-46.5184, -21.5931], [-46.522, -21.5845], [-46.5122, -21.5722], [-46.5118, -21.5654], [-46.5027, -21.5616], [-46.5008, -21.5498], [-46.5111, -21.5359], [-46.523, -21.5299], [-46.5242, -21.5218], [-46.5161, -21.5113], [-46.5193, -21.5009], [-46.5089, -21.4891], [-46.5121, -21.4765], [-46.5093, -21.4699], [-46.5196, -21.462], [-46.5191, -21.449], [-46.5285, -21.445], [-46.5358, -21.4491], [-46.5449, -21.4408], [-46.5579, -21.4427], [-46.5704, -21.4368], [-46.5765, -21.427], [-46.5833, -21.4332], [-46.6019, -21.444], [-46.6153, -21.4415], [-46.62, -21.4354], [-46.6161, -21.4303], [-46.6181, -21.4223], [-46.6247, -21.4135], [-46.6373, -21.4107], [-46.6386, -21.4025], [-46.6487, -21.3917], [-46.6476, -21.3796], [-46.6452, -21.373], [-46.6472, -21.3642], [-46.6667, -21.3613], [-46.6755, -21.3751], [-46.684, -21.3764], [-46.6932, -21.3843], [-46.6939, -21.3906], [-46.7006, -21.4008], [-46.7075, -21.4046], [-46.7147, -21.3927], [-46.739, -21.3926], [-46.7408, -21.3877], [-46.7505, -21.3849], [-46.7621, -21.375], [-46.7583, -21.3647], [-46.7647, -21.3601], [-46.7777, -21.3639], [-46.7815, -21.3707], [-46.7895, -21